NSIGHT-1                
1 42726U 98067MF  18087.51743864  .00011006  00000-0  13821-3 0  9999
2 42726  51.6391  53.5608 0004565 296.9183  63.1344 15.60261877 47806
SNUSAT-1                
1 42727U 98067MG  18087.34332728  .00020183  00000-0  20203-3 0  9992
2 42727  51.6354  49.3279 0004775 246.2224 113.8271 15.65540047 47806
QBITO                   
1 42728U 98067MH  18087.35910381  .00023629  00000-0  22490-3 0  9999
2 42728  51.6390  48.0057 0001124 325.8603  34.2321 15.66701751 47665
AALTO-2                 
1 42729U 98067MJ  18087.34954439  .00025556  00000-0  24112-3 0  9995
2 42729  51.6368  47.9049 0001062 325.0917  35.0009 15.66870081 47677
SUSAT                   
1 42730U 98067MK  18087.34559476  .00022115  00000-0  21645-3 0  9995
2 42730  51.6365  48.6200 0001256 314.1047  45.9845 15.66047918 47652
I-INSPIRE II            
1 42731U 98067ML  18087.44804822  .00028251  00000-0  24342-3 0  9999
2 42731  51.6358  45.5175 0003833 222.1277 137.9426 15.69042177 47751
POLYITAN-2-SAU          
1 42732U 98067MM  18087.51610920  .00022061  00000-0  20681-3 0  9997
2 42732  51.6365  46.7402 0004204 224.7516 135.3142 15.67120770 47743
SNUSAT-1B               
1 42733U 98067MN  18087.34658624  .00021928  00000-0  21430-3 0  9996
2 42733  51.6365  48.6178 0004393 230.2603 129.8006 15.66084288 47708
EXALTA-1                
1 42734U 98067MP  18087.45157193  .00031948  00000-0  27303-3 0  9992
2 42734  51.6342  45.5320 0004214 259.5172 100.5350 15.69171293 47700
AOXIANG-1               
1 42735U 98067MQ  18087.48763472  .00017310  00000-0  18323-3 0  9998
2 42735  51.6364  49.5638 0004815 289.7225  70.3251 15.64242725 49072
BEEAGLESAT              
1 42736U 98067MR  18087.35122314  .00019827  00000-0  20077-3 0  9993
2 42736  51.6361  49.3974 0004458 288.8039  71.2473 15.65262751 47758
ATLANTIS                
1 42737U 98067MS  18087.11387049  .13966215  12356-4  93055-3 0  9999
2 42737  51.6095  27.8979 0006293 234.7874 125.2564 16.40626348 47903
SOYUZ-MS 06             
1 42937U 17054A   18058.64801626  .00002063  00000-0  38351-4 0  9992
2 42937  51.6402 204.7914 0003113 133.9046 319.3314 15.54160216101485
PROGRESS-MS 07          
1 42971U 17065A   18086.49089297  .00002045  00000-0  38094-4 0  9992
2 42971  51.6415  65.9902 0001504 256.9294 199.1426 15.54133063105813
SIMPL                   
1 42983U 98067NF  18087.49183052  .00004770  00000-0  75000-4 0  9996
2 42983  51.6424  59.9407 0003207 247.5731 202.5606 15.55677772 23654
ECAMSAT                 
1 43019U 98067NG  18087.39359791  .00005559  00000-0  84659-4 0  9997
2 43019  51.6397  60.2268 0004373 226.6834 133.3794 15.56192693105960
ASTERIA                 
1 43020U 98067NH  18087.34556224  .00010101  00000-0  14169-3 0  9991
2 43020  51.6403  59.9142 0001674 213.7674 146.3212 15.57403294 19883
DELLINGR (RBLE)         
1 43021U 98067NJ  18087.32345517  .00007914  00000-0  11668-3 0  9990
2 43021  51.6394  60.5103 0001628 206.7759 153.3149 15.56403060 19879
TECHEDSAT 6             
1 43026U 98067NK  18087.46681177  .00131171  00000-0  92401-3 0  9992
2 43026  51.6337  53.1799 0002857 110.7140 249.4165 15.73169642 19883
OSIRIS-3U               
1 43027U 98067NL  18087.48882064  .00021460  00000-0  26412-3 0  9991
2 43027  51.6384  57.8630 0002345 178.4937 181.6063 15.60176755 19803
SOYUZ-MS 07             
1 43063U 17081A   18086.49089297  .00002045  00000-0  38094-4 0  9993
2 43063  51.6415  65.9902 0001504 256.9294 199.1426 15.54133063105816
PROGRESS-MS 08          
1 43211U 18019A   18086.49089297  .00002045  00000-0  38094-4 0  9990
2 43211  51.6415  65.9902 0001504 256.9294 199.1426 15.54133063105811
SOYUZ-MS 08             
1 43238U 18026A   18086.49089297  .00002045  00000-0  38094-4 0  9997
2 43238  51.6415  65.9902 0001504 256.9294 199.1426 15.54133063105810
